[{"OBJECT_NAME":"BEIDOU-3 M2 (C20)","OBJECT_ID":"2017-069B","EPOCH":"2026-03-25T07:21:19.769184","MEAN_MOTION":1.86230563,"ECCENTRICITY":0.00100182,"INCLINATION":56.6199,"RA_OF_ASC_NODE":65.8818,"ARG_OF_PERICENTER":332.3985,"MEAN_ANOMALY":27.5434,"EPHEMERIS_TYPE":0,"CLASSIFICATION_TYPE":"U","NORAD_CAT_ID":43002,"ELEMENT_SET_NO":999,"REV_AT_EPOCH":5703,"BSTAR":0,"MEAN_MOTION_DOT":3.0e-8,"MEAN_MOTION_DDOT":0},{"OBJECT_NAME":"BEIDOU-3 M7 (C27)","OBJECT_ID":"2018-003A","EPOCH":"2026-03-27T17:35:25.499328","MEAN_MOTION":1.86232322,"ECCENTRICITY":0.0005123,"INCLINATION":54.3998,"RA_OF_ASC_NODE":305.1552,"ARG_OF_PERICENTER":76.2108,"MEAN_ANOMALY":283.8848,"EPHEMERIS_TYPE":0,"CLASSIFICATION_TYPE":"U","NORAD_CAT_ID":43107,"ELEMENT_SET_NO":999,"REV_AT_EPOCH":5583,"BSTAR":0,"MEAN_MOTION_DOT":-3.6e-7,"MEAN_MOTION_DDOT":0},{"OBJECT_NAME":"BEIDOU-3 M8 (C28)","OBJECT_ID":"2018-003B","EPOCH":"2026-03-26T01:37:39.698112","MEAN_MOTION":1.86230888,"ECCENTRICITY":0.00025178,"INCLINATION":54.3941,"RA_OF_ASC_NODE":305.1962,"ARG_OF_PERICENTER":294.59,"MEAN_ANOMALY":65.4209,"EPHEMERIS_TYPE":0,"CLASSIFICATION_TYPE":"U","NORAD_CAT_ID":43108,"ELEMENT_SET_NO":999,"REV_AT_EPOCH":5581,"BSTAR":0,"MEAN_MOTION_DOT":-3.2e-7,"MEAN_MOTION_DDOT":0},{"OBJECT_NAME":"BEIDOU-3 M4 (C22)","OBJECT_ID":"2018-018A","EPOCH":"2026-03-27T14:01:00.571296","MEAN_MOTION":1.86230795,"ECCENTRICITY":0.00074731,"INCLINATION":56.5822,"RA_OF_ASC_NODE":65.8372,"ARG_OF_PERICENTER":354.563,"MEAN_ANOMALY":5.4246,"EPHEMERIS_TYPE":0,"CLASSIFICATION_TYPE":"U","NORAD_CAT_ID":43207,"ELEMENT_SET_NO":999,"REV_AT_EPOCH":5522,"BSTAR":0,"MEAN_MOTION_DOT":2.0e-8,"MEAN_MOTION_DDOT":0},{"OBJECT_NAME":"BEIDOU-3 M3 (C21)","OBJECT_ID":"2018-018B","EPOCH":"2026-03-20T16:04:52.510080","MEAN_MOTION":1.86230975,"ECCENTRICITY":0.00100988,"INCLINATION":56.5746,"RA_OF_ASC_NODE":66.0695,"ARG_OF_PERICENTER":322.3953,"MEAN_ANOMALY":37.533,"EPHEMERIS_TYPE":0,"CLASSIFICATION_TYPE":"U","NORAD_CAT_ID":43208,"ELEMENT_SET_NO":999,"REV_AT_EPOCH":5509,"BSTAR":0,"MEAN_MOTION_DOT":5.0e-8,"MEAN_MOTION_DDOT":0},{"OBJECT_NAME":"BEIDOU-3 M9 (C29)","OBJECT_ID":"2018-029A","EPOCH":"2026-03-27T07:56:29.226048","MEAN_MOTION":1.86227949,"ECCENTRICITY":9.91e-5,"INCLINATION":54.2677,"RA_OF_ASC_NODE":302.8109,"ARG_OF_PERICENTER":53.0238,"MEAN_ANOMALY":307.0215,"EPHEMERIS_TYPE":0,"CLASSIFICATION_TYPE":"U","NORAD_CAT_ID":43245,"ELEMENT_SET_NO":999,"REV_AT_EPOCH":5437,"BSTAR":0,"MEAN_MOTION_DOT":-3.0e-7,"MEAN_MOTION_DDOT":0},{"OBJECT_NAME":"BEIDOU-3 M10 (C30)","OBJECT_ID":"2018-029B","EPOCH":"2026-03-27T06:22:33.331584","MEAN_MOTION":1.86228943,"ECCENTRICITY":0.00051573,"INCLINATION":54.2656,"RA_OF_ASC_NODE":302.8409,"ARG_OF_PERICENTER":29.9252,"MEAN_ANOMALY":330.1406,"EPHEMERIS_TYPE":0,"CLASSIFICATION_TYPE":"U","NORAD_CAT_ID":43246,"ELEMENT_SET_NO":999,"REV_AT_EPOCH":5435,"BSTAR":0,"MEAN_MOTION_DOT":-3.0e-7,"MEAN_MOTION_DDOT":0},{"OBJECT_NAME":"BEIDOU-2 IGSO-7 (C16)","OBJECT_ID":"2018-057A","EPOCH":"2026-03-27T15:08:38.812992","MEAN_MOTION":1.00275701,"ECCENTRICITY":0.01017729,"INCLINATION":55.1838,"RA_OF_ASC_NODE":163.7722,"ARG_OF_PERICENTER":237.2605,"MEAN_ANOMALY":124.1194,"EPHEMERIS_TYPE":0,"CLASSIFICATION_TYPE":"U","NORAD_CAT_ID":43539,"ELEMENT_SET_NO":999,"REV_AT_EPOCH":2831,"BSTAR":0,"MEAN_MOTION_DOT":-1.68e-6,"MEAN_MOTION_DDOT":0},{"OBJECT_NAME":"BEIDOU-3 M5 (C23)","OBJECT_ID":"2018-062A","EPOCH":"2026-03-25T08:12:28.052640","MEAN_MOTION":1.86228672,"ECCENTRICITY":0.0003067,"INCLINATION":54.0854,"RA_OF_ASC_NODE":185.155,"ARG_OF_PERICENTER":294.9354,"MEAN_ANOMALY":65.0457,"EPHEMERIS_TYPE":0,"CLASSIFICATION_TYPE":"U","NORAD_CAT_ID":43581,"ELEMENT_SET_NO":999,"REV_AT_EPOCH":5207,"BSTAR":0,"MEAN_MOTION_DOT":-1.2e-7,"MEAN_MOTION_DDOT":0},{"OBJECT_NAME":"BEIDOU-3 M6 (C24)","OBJECT_ID":"2018-062B","EPOCH":"2026-03-26T19:34:53.074848","MEAN_MOTION":1.8622764,"ECCENTRICITY":0.0005446,"INCLINATION":54.085,"RA_OF_ASC_NODE":185.0939,"ARG_OF_PERICENTER":35.9935,"MEAN_ANOMALY":324.0504,"EPHEMERIS_TYPE":0,"CLASSIFICATION_TYPE":"U","NORAD_CAT_ID":43582,"ELEMENT_SET_NO":999,"REV_AT_EPOCH":5210,"BSTAR":0,"MEAN_MOTION_DOT":-3.4e-7,"MEAN_MOTION_DDOT":0},{"OBJECT_NAME":"BEIDOU-3 M12 (C26)","OBJECT_ID":"2018-067A","EPOCH":"2026-03-19T05:41:05.883360","MEAN_MOTION":1.86227949,"ECCENTRICITY":0.00084314,"INCLINATION":54.1818,"RA_OF_ASC_NODE":184.0904,"ARG_OF_PERICENTER":38.9393,"MEAN_ANOMALY":321.1247,"EPHEMERIS_TYPE":0,"CLASSIFICATION_TYPE":"U","NORAD_CAT_ID":43602,"ELEMENT_SET_NO":999,"REV_AT_EPOCH":5144,"BSTAR":0,"MEAN_MOTION_DOT":2.6e-7,"MEAN_MOTION_DDOT":0},{"OBJECT_NAME":"BEIDOU-3 M11 (C25)","OBJECT_ID":"2018-067B","EPOCH":"2026-03-25T19:33:53.801856","MEAN_MOTION":1.86227158,"ECCENTRICITY":0.0004691,"INCLINATION":54.1779,"RA_OF_ASC_NODE":183.8314,"ARG_OF_PERICENTER":29.2398,"MEAN_ANOMALY":330.7997,"EPHEMERIS_TYPE":0,"CLASSIFICATION_TYPE":"U","NORAD_CAT_ID":43603,"ELEMENT_SET_NO":999,"REV_AT_EPOCH":5159,"BSTAR":0,"MEAN_MOTION_DOT":-2.0e-7,"MEAN_MOTION_DDOT":0},{"OBJECT_NAME":"BEIDOU-3 M13 (C32)","OBJECT_ID":"2018-072A","EPOCH":"2026-03-28T10:55:59.749824","MEAN_MOTION":1.86230907,"ECCENTRICITY":0.00091231,"INCLINATION":56.556,"RA_OF_ASC_NODE":65.3217,"ARG_OF_PERICENTER":312.6672,"MEAN_ANOMALY":47.2493,"EPHEMERIS_TYPE":0,"CLASSIFICATION_TYPE":"U","NORAD_CAT_ID":43622,"ELEMENT_SET_NO":999,"REV_AT_EPOCH":5115,"BSTAR":0,"MEAN_MOTION_DOT":-3.0e-8,"MEAN_MOTION_DDOT":0},{"OBJECT_NAME":"BEIDOU-3 M14 (C33)","OBJECT_ID":"2018-072B","EPOCH":"2026-03-28T07:42:14.827680","MEAN_MOTION":1.862309,"ECCENTRICITY":0.0006825,"INCLINATION":56.5577,"RA_OF_ASC_NODE":65.3203,"ARG_OF_PERICENTER":333.8606,"MEAN_ANOMALY":26.0987,"EPHEMERIS_TYPE":0,"CLASSIFICATION_TYPE":"U","NORAD_CAT_ID":43623,"ELEMENT_SET_NO":999,"REV_AT_EPOCH":5114,"BSTAR":0,"MEAN_MOTION_DOT":-2.0e-8,"MEAN_MOTION_DDOT":0},{"OBJECT_NAME":"BEIDOU-3 M16 (C35)","OBJECT_ID":"2018-078A","EPOCH":"2026-03-26T20:48:04.936320","MEAN_MOTION":1.8623224,"ECCENTRICITY":0.0008443,"INCLINATION":54.1644,"RA_OF_ASC_NODE":302.8718,"ARG_OF_PERICENTER":34.6278,"MEAN_ANOMALY":325.463,"EPHEMERIS_TYPE":0,"CLASSIFICATION_TYPE":"U","NORAD_CAT_ID":43647,"ELEMENT_SET_NO":999,"REV_AT_EPOCH":5062,"BSTAR":0,"MEAN_MOTION_DOT":-2.9e-7,"MEAN_MOTION_DDOT":0},{"OBJECT_NAME":"BEIDOU-3 M15 (C34)","OBJECT_ID":"2018-078B","EPOCH":"2026-03-28T01:40:42.062592","MEAN_MOTION":1.86232103,"ECCENTRICITY":0.00054573,"INCLINATION":54.1588,"RA_OF_ASC_NODE":302.8305,"ARG_OF_PERICENTER":44.531,"MEAN_ANOMALY":315.5495,"EPHEMERIS_TYPE":0,"CLASSIFICATION_TYPE":"U","NORAD_CAT_ID":43648,"ELEMENT_SET_NO":999,"REV_AT_EPOCH":5066,"BSTAR":0,"MEAN_MOTION_DOT":-3.3e-7,"MEAN_MOTION_DDOT":0},{"OBJECT_NAME":"BEIDOU-3 G1 (C59)","OBJECT_ID":"2018-085A","EPOCH":"2026-03-28T22:17:42.764352","MEAN_MOTION":1.00269317,"ECCENTRICITY":0.00015654,"INCLINATION":2.8717,"RA_OF_ASC_NODE":99.6104,"ARG_OF_PERICENTER":22.6654,"MEAN_ANOMALY":178.4615,"EPHEMERIS_TYPE":0,"CLASSIFICATION_TYPE":"U","NORAD_CAT_ID":43683,"ELEMENT_SET_NO":999,"REV_AT_EPOCH":2725,"BSTAR":0,"MEAN_MOTION_DOT":-2.96e-6,"MEAN_MOTION_DDOT":0}]
